[{"OBJECT_NAME":"STARLINK-5448","OBJECT_ID":"2022-175N","EPOCH":"2023-09-15T02:32:53.174400","MEAN_MOTION":15.08828384,"ECCENTRICITY":0.0001343,"INCLINATION":53.2163,"RA_OF_ASC_NODE":139.114,"ARG_OF_PERICENTER":90.7545,"MEAN_ANOMALY":269.3601,"EPHEMERIS_TYPE":0,"CLASSIFICATION_TYPE":"U","NORAD_CAT_ID":54770,"ELEMENT_SET_NO":999,"REV_AT_EPOCH":4326,"BSTAR":-0.00015167,"MEAN_MOTION_DOT":-2.7e-5,"MEAN_MOTION_DDOT":0},{"OBJECT_NAME":"STARLINK-5451","OBJECT_ID":"2022-175P","EPOCH":"2023-09-15T17:37:39.311328","MEAN_MOTION":15.08843572,"ECCENTRICITY":0.0001248,"INCLINATION":53.2169,"RA_OF_ASC_NODE":145.9118,"ARG_OF_PERICENTER":84.2841,"MEAN_ANOMALY":275.8294,"EPHEMERIS_TYPE":0,"CLASSIFICATION_TYPE":"U","NORAD_CAT_ID":54771,"ELEMENT_SET_NO":999,"REV_AT_EPOCH":4106,"BSTAR":-3.2777e-5,"MEAN_MOTION_DOT":-8.1e-6,"MEAN_MOTION_DDOT":0},{"OBJECT_NAME":"STARLINK-5452","OBJECT_ID":"2022-175Q","EPOCH":"2023-09-15T02:27:35.712288","MEAN_MOTION":15.08821379,"ECCENTRICITY":0.0001406,"INCLINATION":53.2175,"RA_OF_ASC_NODE":139.0902,"ARG_OF_PERICENTER":97.8791,"MEAN_ANOMALY":262.2361,"EPHEMERIS_TYPE":0,"CLASSIFICATION_TYPE":"U","NORAD_CAT_ID":54772,"ELEMENT_SET_NO":999,"REV_AT_EPOCH":4326,"BSTAR":-0.00015942,"MEAN_MOTION_DOT":-2.823e-5,"MEAN_MOTION_DDOT":0},{"OBJECT_NAME":"STARLINK-5453","OBJECT_ID":"2022-175R","EPOCH":"2023-09-15T03:31:47.171136","MEAN_MOTION":15.08838645,"ECCENTRICITY":0.0001309,"INCLINATION":53.2171,"RA_OF_ASC_NODE":153.6258,"ARG_OF_PERICENTER":88.783,"MEAN_ANOMALY":271.3312,"EPHEMERIS_TYPE":0,"CLASSIFICATION_TYPE":"U","NORAD_CAT_ID":54773,"ELEMENT_SET_NO":999,"REV_AT_EPOCH":4306,"BSTAR":-7.3132e-5,"MEAN_MOTION_DOT":-1.452e-5,"MEAN_MOTION_DDOT":0},{"OBJECT_NAME":"STARLINK-5454","OBJECT_ID":"2022-175S","EPOCH":"2023-09-15T01:23:54.687840","MEAN_MOTION":15.08836505,"ECCENTRICITY":0.0001318,"INCLINATION":53.2171,"RA_OF_ASC_NODE":138.8246,"ARG_OF_PERICENTER":84.8225,"MEAN_ANOMALY":275.2918,"EPHEMERIS_TYPE":0,"CLASSIFICATION_TYPE":"U","NORAD_CAT_ID":54774,"ELEMENT_SET_NO":999,"REV_AT_EPOCH":4326,"BSTAR":-0.00010068,"MEAN_MOTION_DOT":-1.89e-5,"MEAN_MOTION_DDOT":0},{"OBJECT_NAME":"STARLINK-5465","OBJECT_ID":"2022-175T","EPOCH":"2023-09-15T01:51:05.593248","MEAN_MOTION":15.08836853,"ECCENTRICITY":0.0001342,"INCLINATION":53.217,"RA_OF_ASC_NODE":153.8991,"ARG_OF_PERICENTER":91.023,"MEAN_ANOMALY":269.0916,"EPHEMERIS_TYPE":0,"CLASSIFICATION_TYPE":"U","NORAD_CAT_ID":54775,"ELEMENT_SET_NO":999,"REV_AT_EPOCH":4305,"BSTAR":-6.5098e-6,"MEAN_MOTION_DOT":-3.91e-6,"MEAN_MOTION_DDOT":0},{"OBJECT_NAME":"STARLINK-5470","OBJECT_ID":"2022-175U","EPOCH":"2023-09-15T02:54:38.156544","MEAN_MOTION":15.08845858,"ECCENTRICITY":0.000134,"INCLINATION":53.2165,"RA_OF_ASC_NODE":153.4679,"ARG_OF_PERICENTER":84.3885,"MEAN_ANOMALY":275.7259,"EPHEMERIS_TYPE":0,"CLASSIFICATION_TYPE":"U","NORAD_CAT_ID":54776,"ELEMENT_SET_NO":999,"REV_AT_EPOCH":4306,"BSTAR":-3.7051e-5,"MEAN_MOTION_DOT":-8.78e-6,"MEAN_MOTION_DDOT":0},{"OBJECT_NAME":"STARLINK-5468","OBJECT_ID":"2022-175V","EPOCH":"2023-09-15T03:21:10.006560","MEAN_MOTION":15.08845348,"ECCENTRICITY":0.0001403,"INCLINATION":53.2168,"RA_OF_ASC_NODE":153.58,"ARG_OF_PERICENTER":94.3368,"MEAN_ANOMALY":265.7784,"EPHEMERIS_TYPE":0,"CLASSIFICATION_TYPE":"U","NORAD_CAT_ID":54777,"ELEMENT_SET_NO":999,"REV_AT_EPOCH":4306,"BSTAR":-5.0341e-5,"MEAN_MOTION_DOT":-1.089e-5,"MEAN_MOTION_DDOT":0},{"OBJECT_NAME":"STARLINK-5450","OBJECT_ID":"2022-175W","EPOCH":"2023-09-14T23:06:11.624256","MEAN_MOTION":15.08834869,"ECCENTRICITY":0.0001314,"INCLINATION":53.2167,"RA_OF_ASC_NODE":139.6427,"ARG_OF_PERICENTER":106.7869,"MEAN_ANOMALY":253.3268,"EPHEMERIS_TYPE":0,"CLASSIFICATION_TYPE":"U","NORAD_CAT_ID":54778,"ELEMENT_SET_NO":999,"REV_AT_EPOCH":4324,"BSTAR":-8.5065e-5,"MEAN_MOTION_DOT":-1.641e-5,"MEAN_MOTION_DDOT":0},{"OBJECT_NAME":"STARLINK-5447","OBJECT_ID":"2022-175X","EPOCH":"2023-09-15T00:46:53.565888","MEAN_MOTION":15.08831546,"ECCENTRICITY":0.000137,"INCLINATION":53.2164,"RA_OF_ASC_NODE":139.365,"ARG_OF_PERICENTER":89.9811,"MEAN_ANOMALY":270.1338,"EPHEMERIS_TYPE":0,"CLASSIFICATION_TYPE":"U","NORAD_CAT_ID":54779,"ELEMENT_SET_NO":999,"REV_AT_EPOCH":4325,"BSTAR":-6.1592e-5,"MEAN_MOTION_DOT":-1.268e-5,"MEAN_MOTION_DDOT":0},{"OBJECT_NAME":"STARLINK-5449","OBJECT_ID":"2022-175Y","EPOCH":"2023-09-14T22:44:58.310304","MEAN_MOTION":15.08836252,"ECCENTRICITY":0.000134,"INCLINATION":53.217,"RA_OF_ASC_NODE":139.5466,"ARG_OF_PERICENTER":86.9766,"MEAN_ANOMALY":273.138,"EPHEMERIS_TYPE":0,"CLASSIFICATION_TYPE":"U","NORAD_CAT_ID":54780,"ELEMENT_SET_NO":999,"REV_AT_EPOCH":4324,"BSTAR":-8.808e-5,"MEAN_MOTION_DOT":-1.689e-5,"MEAN_MOTION_DDOT":0},{"OBJECT_NAME":"STARLINK-5443","OBJECT_ID":"2022-175Z","EPOCH":"2023-09-14T23:00:53.222976","MEAN_MOTION":15.08832655,"ECCENTRICITY":0.000147,"INCLINATION":53.2161,"RA_OF_ASC_NODE":139.6128,"ARG_OF_PERICENTER":89.6153,"MEAN_ANOMALY":270.5008,"EPHEMERIS_TYPE":0,"CLASSIFICATION_TYPE":"U","NORAD_CAT_ID":54781,"ELEMENT_SET_NO":999,"REV_AT_EPOCH":4324,"BSTAR":-7.7749e-5,"MEAN_MOTION_DOT":-1.525e-5,"MEAN_MOTION_DDOT":0},{"OBJECT_NAME":"STARLINK-5437","OBJECT_ID":"2022-175AA","EPOCH":"2023-09-14T23:24:52.607232","MEAN_MOTION":15.18944301,"ECCENTRICITY":0.0003829,"INCLINATION":53.2171,"RA_OF_ASC_NODE":102.8657,"ARG_OF_PERICENTER":104.392,"MEAN_ANOMALY":255.7501,"EPHEMERIS_TYPE":0,"CLASSIFICATION_TYPE":"U","NORAD_CAT_ID":54782,"ELEMENT_SET_NO":999,"REV_AT_EPOCH":4376,"BSTAR":0.00039939,"MEAN_MOTION_DOT":8.138e-5,"MEAN_MOTION_DDOT":0},{"OBJECT_NAME":"STARLINK-5439","OBJECT_ID":"2022-175AB","EPOCH":"2023-09-15T02:06:21.491136","MEAN_MOTION":15.08832205,"ECCENTRICITY":0.000148,"INCLINATION":53.2166,"RA_OF_ASC_NODE":138.9991,"ARG_OF_PERICENTER":98.4376,"MEAN_ANOMALY":261.6784,"EPHEMERIS_TYPE":0,"CLASSIFICATION_TYPE":"U","NORAD_CAT_ID":54783,"ELEMENT_SET_NO":999,"REV_AT_EPOCH":4326,"BSTAR":-5.9815e-5,"MEAN_MOTION_DOT":-1.24e-5,"MEAN_MOTION_DDOT":0},{"OBJECT_NAME":"STARLINK-5442","OBJECT_ID":"2022-175AC","EPOCH":"2023-09-15T03:15:51.939648","MEAN_MOTION":15.08835692,"ECCENTRICITY":0.0001362,"INCLINATION":53.2167,"RA_OF_ASC_NODE":153.5572,"ARG_OF_PERICENTER":93.1027,"MEAN_ANOMALY":267.0121,"EPHEMERIS_TYPE":0,"CLASSIFICATION_TYPE":"U","NORAD_CAT_ID":54784,"ELEMENT_SET_NO":999,"REV_AT_EPOCH":4306,"BSTAR":0.0008261,"MEAN_MOTION_DOT":0.00012882,"MEAN_MOTION_DDOT":0},{"OBJECT_NAME":"STARLINK-5440","OBJECT_ID":"2022-175AD","EPOCH":"2023-09-15T14:00:01.000224","MEAN_MOTION":15.08854208,"ECCENTRICITY":0.0001145,"INCLINATION":53.2153,"RA_OF_ASC_NODE":96.6618,"ARG_OF_PERICENTER":98.8326,"MEAN_ANOMALY":174.8177,"EPHEMERIS_TYPE":0,"CLASSIFICATION_TYPE":"U","NORAD_CAT_ID":54785,"ELEMENT_SET_NO":999,"REV_AT_EPOCH":566,"BSTAR":0.00036262,"MEAN_MOTION_DOT":5.49e-5,"MEAN_MOTION_DDOT":0},{"OBJECT_NAME":"STARLINK-5438","OBJECT_ID":"2022-175AE","EPOCH":"2023-09-15T02:22:11.253504","MEAN_MOTION":15.07199743,"ECCENTRICITY":0.0001223,"INCLINATION":53.2164,"RA_OF_ASC_NODE":139.0625,"ARG_OF_PERICENTER":85.9406,"MEAN_ANOMALY":274.1725,"EPHEMERIS_TYPE":0,"CLASSIFICATION_TYPE":"U","NORAD_CAT_ID":54786,"ELEMENT_SET_NO":999,"REV_AT_EPOCH":4326,"BSTAR":-6.3117e-5,"MEAN_MOTION_DOT":-1.244e-5,"MEAN_MOTION_DDOT":0}]
