STARLINK-5448           
1 54770U 22175N   23258.10617100 -.00002700  00000+0 -15167-3 0  9999
2 54770  53.2163 139.1140 0001343  90.7545 269.3601 15.08828384 43264
STARLINK-5451           
1 54771U 22175P   23258.73448277 -.00000810  00000+0 -32777-4 0  9993
2 54771  53.2169 145.9118 0001248  84.2841 275.8294 15.08843572 41064
STARLINK-5452           
1 54772U 22175Q   23258.10249667 -.00002823  00000+0 -15942-3 0  9997
2 54772  53.2175 139.0902 0001406  97.8791 262.2361 15.08821379 43267
STARLINK-5453           
1 54773U 22175R   23258.14707374 -.00001452  00000+0 -73132-4 0  9999
2 54773  53.2171 153.6258 0001309  88.7830 271.3312 15.08838645 43064
STARLINK-5454           
1 54774U 22175S   23258.05827185 -.00001890  00000+0 -10068-3 0  9997
2 54774  53.2171 138.8246 0001318  84.8225 275.2918 15.08836505 43262
STARLINK-5465           
1 54775U 22175T   23258.07714807 -.00000391  00000+0 -65098-5 0  9996
2 54775  53.2170 153.8991 0001342  91.0230 269.0916 15.08836853 43051
STARLINK-5470           
1 54776U 22175U   23258.12127496 -.00000878  00000+0 -37051-4 0  9992
2 54776  53.2165 153.4679 0001340  84.3885 275.7259 15.08845858 43064
STARLINK-5468           
1 54777U 22175V   23258.13969915 -.00001089  00000+0 -50341-4 0  9996
2 54777  53.2168 153.5800 0001403  94.3368 265.7784 15.08845348 43068
STARLINK-5450           
1 54778U 22175W   23257.96263454 -.00001641  00000+0 -85065-4 0  9997
2 54778  53.2167 139.6427 0001314 106.7869 253.3268 15.08834869 43249
STARLINK-5447           
1 54779U 22175X   23258.03256442 -.00001268  00000+0 -61592-4 0  9990
2 54779  53.2164 139.3650 0001370  89.9811 270.1338 15.08831546 43258
STARLINK-5449           
1 54780U 22175Y   23257.94789711 -.00001689  00000+0 -88080-4 0  9999
2 54780  53.2170 139.5466 0001340  86.9766 273.1380 15.08836252 43245
STARLINK-5443           
1 54781U 22175Z   23257.95894934 -.00001525  00000+0 -77749-4 0  9994
2 54781  53.2161 139.6128 0001470  89.6153 270.5008 15.08832655 43247
STARLINK-5437           
1 54782U 22175AA  23257.97560888  .00008138  00000+0  39939-3 0  9998
2 54782  53.2171 102.8657 0003829 104.3920 255.7501 15.18944301 43768
STARLINK-5439           
1 54783U 22175AB  23258.08774874 -.00001240  00000+0 -59815-4 0  9999
2 54783  53.2166 138.9991 0001480  98.4376 261.6784 15.08832205 43265
STARLINK-5442           
1 54784U 22175AC  23258.13601782  .00012882  00000+0  82610-3 0  9993
2 54784  53.2167 153.5572 0001362  93.1027 267.0121 15.08835692 43065
STARLINK-5440           
1 54785U 22175AD  23258.58334491  .00005490  00000+0  36262-3 0  9992
2 54785  53.2153  96.6618 0001145  98.8326 174.8177 15.08854208  5666
STARLINK-5438           
1 54786U 22175AE  23258.09874136 -.00001244  00000+0 -63117-4 0  9999
2 54786  53.2164 139.0625 0001223  85.9406 274.1725 15.07199743 43268
